NORAD_CAT_ID,OBJECT_NAME,OBJECT_TYPE,EPOCH,MEAN_MOTION,ECCENTRICITY,INCLINATION,RA_OF_ASC_NODE,ARG_OF_PERICENTER,MEAN_ANOMALY,BSTAR,MEAN_MOTION_DOT,MEAN_MOTION_DDOT,TLE_LINE0,TLE_LINE1,TLE_LINE2,SEMIMAJOR_AXIS,PERIOD,APOGEE,PERIGEE,DECAYED
50815.0,STARLINK-3234,PAYLOAD,2022-10-07 10:18:43,15.08834904,0.0001906999999999,53.2207,17.2709,33.6326,326.4787,0.00014833,2.073e-05,0.0,0 STARLINK-3234,1 50815U 22001N   22280.42967076  .00002073  00000-0  14833-3 0  9993,2 50815  53.2207  17.2709 0001907  33.6326 326.4787 15.08834904 43080,6917.896,95.438,541.08,538.442,0.0
50815.0,STARLINK-3234,PAYLOAD,2022-10-07 13:29:29,15.0883581,0.0001809,53.2203,16.676,33.8571,326.2536,0.00017276,2.462e-05,0.0,0 STARLINK-3234,1 50815U 22001N   22280.56215018  .00002462  00000-0  17276-3 0  9996,2 50815  53.2203  16.6760 0001809  33.8571 326.2536 15.08835810 41839,6917.893,95.438,541.01,538.507,0.0
50815.0,STARLINK-3234,PAYLOAD,2022-10-07 18:15:39,15.08831879,0.0001942,53.2201,15.7824,37.0827,323.0299,0.00012405,1.686e-05,0.0,0 STARLINK-3234,1 50815U 22001N   22280.76087557  .00001686  00000-0  12405-3 0  9999,2 50815  53.2201  15.7824 0001942  37.0827 323.0299 15.08831879 41861,6917.905,95.438,541.114,538.427,0.0
50815.0,STARLINK-3234,PAYLOAD,2022-10-08 05:23:22,15.08830689,0.0001988,53.2202,13.7013,37.3744,322.7386,-4.2945e-05,-9.71e-06,0.0,0 STARLINK-3234,1 50815U 22001N   22281.22456583 -.00000971  00000-0 -42945-4 0  9991,2 50815  53.2202  13.7013 0001988  37.3744 322.7386 15.08830689 43202,6917.909000000002,95.438,541.149,538.399,0.0
50815.0,STARLINK-3234,PAYLOAD,2022-10-08 13:20:17,15.08835677,0.0002012,53.2221,12.2174,44.1925,315.9228,8.8696e-06,-1.47e-06,0.0,0 STARLINK-3234,1 50815U 22001N   22281.55576327 -.00000147  00000-0  88696-5 0  9994,2 50815  53.2221  12.2174 0002012  44.1925 315.9228 15.08835677 41985,6917.894,95.438,541.15,538.367,0.0
50815.0,STARLINK-3234,PAYLOAD,2022-10-08 14:55:41,15.08834855,0.0002029999999999,53.2218,11.9196,41.6141,318.5006,1.0191e-06,-2.72e-06,0.0,0 STARLINK-3234,1 50815U 22001N   22281.62200399 -.00000272  00000-0  10191-5 0  9999,2 50815  53.2218  11.9196 0002030  41.6141 318.5006 15.08834855 41994,6917.896,95.438,541.165,538.357,0.0
50815.0,STARLINK-3234,PAYLOAD,2022-10-09 11:35:42,15.08837137,0.0001928,53.2218,8.052999999999999,45.9743,314.1408,1.0722e-05,-1.18e-06,0.0,0 STARLINK-3234,1 50815U 22001N   22282.48312667 -.00000118  00000-0  10722-4 0  9994,2 50815  53.2218   8.0530 0001928  45.9743 314.1408 15.08837137 43393,6917.889,95.438,541.0880000000002,538.42,0.0
50815.0,STARLINK-3234,PAYLOAD,2022-10-10 11:26:28,15.08848056,0.000194,53.2206,3.5927,35.5127,324.5994,0.00026122,3.873e-05,0.0,0 STARLINK-3234,1 50815U 22001N   22283.47671995  .00003873  00000-0  26122-3 0  9996,2 50815  53.2206   3.5927 0001940  35.5127 324.5994 15.08848056 42278,6917.856,95.437,541.063,538.379,0.0
50815.0,STARLINK-3234,PAYLOAD,2022-10-10 14:37:15,15.08842904,0.000195,53.2193,2.9964,32.7951,327.3162,0.00018579,2.67e-05,0.0,0 STARLINK-3234,1 50815U 22001N   22283.60920245  .00002670  00000-0  18579-3 0  9997,2 50815  53.2193   2.9964 0001950  32.7951 327.3162 15.08842904 42298,6917.871999999999,95.437,541.085,538.388,0.0
50815.0,STARLINK-3234,PAYLOAD,2022-10-11 11:17:16,15.08828399,0.0001969,53.2196,359.1307,35.7825,324.3299,-0.00014414,-2.581e-05,0.0,0 STARLINK-3234,1 50815U 22001N   22284.47033122 -.00002581  00000-0 -14414-3 0  9999,2 50815  53.2196 359.1307 0001969  35.7825 324.3299 15.08828399 42427,6917.916,95.438,541.143,538.419,0.0
50815.0,STARLINK-3234,PAYLOAD,2022-10-11 14:28:03,15.08821777,0.0001991,53.2204,358.5364,37.713,322.4002,-0.0001022999999999,-1.915e-05,0.0,0 STARLINK-3234,1 50815U 22001N   22284.60282395 -.00001915  00000-0 -10230-3 0  9994,2 50815  53.2204 358.5364 0001991  37.7130 322.4002 15.08821777 43716,6917.936,95.439,541.178,538.424,0.0
50815.0,STARLINK-3234,PAYLOAD,2022-10-12 04:46:31,15.088322,0.0001949,53.2205,355.8606,32.3922,327.7189,-9.7565e-05,-1.84e-05,0.0,0 STARLINK-3234,1 50815U 22001N   22285.19898069 -.00001840  00000-0 -97565-4 0  9994,2 50815  53.2205 355.8606 0001949  32.3922 327.7189 15.08832200 43806,6917.904,95.438,541.118,538.4209999999998,0.0
50815.0,STARLINK-3234,PAYLOAD,2022-10-12 11:08:03,15.08841992,0.0002322,53.2217,354.6764,48.3511,311.768,4.2051e-05,3.81e-06,0.0,0 STARLINK-3234,1 50815U 22001N   22285.46393152  .00000381  00000-0  42051-4 0  9994,2 50815  53.2217 354.6764 0002322  48.3511 311.7680 15.08841992 43849,6917.874,95.437,541.346,538.133,0.0
50815.0,STARLINK-3234,PAYLOAD,2022-10-12 12:43:26,15.08852186,0.0002179,53.2208,354.3757,36.3504,323.7635,0.00010901,1.448e-05,0.0,0 STARLINK-3234,1 50815U 22001N   22285.53016294  .00001448  00000-0  10901-3 0  9994,2 50815  53.2208 354.3757 0002179  36.3504 323.7635 15.08852186 42587,6917.843000000003,95.437,541.216,538.201,0.0
50815.0,STARLINK-3234,PAYLOAD,2022-10-12 15:54:11,15.08857418,0.000213,53.2205,353.7797,37.2551,322.8588,0.00014971,2.096e-05,0.0,0 STARLINK-3234,1 50815U 22001N   22285.66263804  .00002096  00000-0  14971-3 0  9990,2 50815  53.2205 353.7797 0002130  37.2551 322.8588 15.08857418 43873,6917.8269999999975,95.436,541.1659999999998,538.219,0.0
50815.0,STARLINK-3234,PAYLOAD,2022-10-13 10:58:50,15.08836043,0.00022,53.2208,350.2129,42.9616,317.1548,0.00031797,4.775e-05,0.0,0 STARLINK-3234,1 50815U 22001N   22286.45752872  .00004775  00000-0  31797-3 0  9997,2 50815  53.2208 350.2129 0002200  42.9616 317.1548 15.08836043 42727,6917.892,95.438,541.279,538.236,0.0
50815.0,STARLINK-3234,PAYLOAD,2022-10-13 14:09:37,15.08833662,0.0002325,53.2201,349.6187,41.0507,319.066,0.00025497,3.771e-05,0.0,0 STARLINK-3234,1 50815U 22001N   22286.59001656  .00003771  00000-0  25497-3 0  9994,2 50815  53.2201 349.6187 0002325  41.0507 319.0660 15.08833662 44017,6917.9,95.438,541.373,538.156,0.0
50815.0,STARLINK-3234,PAYLOAD,2022-10-14 10:49:36,15.08865733,0.0002064,53.2193,345.751,42.3916,317.7235,0.0002739,4.077e-05,0.0,0 STARLINK-3234,1 50815U 22001N   22287.45111813  .00004077  00000-0  27390-3 0  9991,2 50815  53.2193 345.7510 0002064  42.3916 317.7235 15.08865733 44143,6917.802,95.436,541.095,538.239,0.0
50815.0,STARLINK-3234,PAYLOAD,2022-10-14 14:00:22,15.08866918,0.0002226,53.2191,345.1565,39.8899,320.2256,0.00029759,4.455e-05,0.0,0 STARLINK-3234,1 50815U 22001N   22287.58359630  .00004455  00000-0  29759-3 0  9997,2 50815  53.2191 345.1565 0002226  39.8899 320.2256 15.08866918 42894,6917.7980000000025,95.436,541.203,538.123,0.0
50815.0,STARLINK-3234,PAYLOAD,2022-10-15 12:15:47,15.0883691,0.0002197,53.2193,340.9943,37.3075,322.807,-0.00014713,-2.629e-05,0.0,0 STARLINK-3234,1 50815U 22001N   22288.51096270 -.00002629  00000-0 -14713-3 0  9996,2 50815  53.2193 340.9943 0002197  37.3075 322.8070 15.08836910 43033,6917.89,95.438,541.275,538.235,0.0
50815.0,STARLINK-3234,PAYLOAD,2022-10-15 15:26:33,15.08838709,0.0002198999999999,53.219,340.3991,33.8866,326.2266,-0.00012172,-2.225e-05,0.0,0 STARLINK-3234,1 50815U 22001N   22288.64343881 -.00002225  00000-0 -12172-3 0  9992,2 50815  53.2190 340.3991 0002199  33.8866 326.2266 15.08838709 43053,6917.884,95.438,541.271,538.2280000000002,0.0
50815.0,STARLINK-3234,PAYLOAD,2022-10-16 12:06:34,15.08827019,0.0002289,53.2186,336.5326,31.5258,328.5871,-0.00035311,-5.902e-05,0.0,0 STARLINK-3234,1 50815U 22001N   22289.50456528 -.00005902  00000-0 -35311-3 0  9996,2 50815  53.2186 336.5326 0002289  31.5258 328.5871 15.08827019 43180,6917.92,95.438,541.369,538.202,0.0
50815.0,STARLINK-3234,PAYLOAD,2022-10-16 20:03:30,15.0883073,0.0002398,53.2188,335.0466,32.9383,327.1758,-0.00014192,-2.546e-05,0.0,0 STARLINK-3234,1 50815U 22001N   22289.83576646 -.00002546  00000-0 -14192-3 0  9991,2 50815  53.2188 335.0466 0002398  32.9383 327.1758 15.08830730 43235,6917.909000000002,95.438,541.433,538.115,0.0
50815.0,STARLINK-3234,PAYLOAD,2022-10-17 11:57:22,15.08824681,0.0002358,53.219,332.0732,31.4226,328.6907,-4.7894e-05,-1.05e-05,0.0,0 STARLINK-3234,1 50815U 22001N   22290.49817806 -.00001050  00000-0 -47894-4 0  9996,2 50815  53.2190 332.0732 0002358  31.4226 328.6907 15.08824681 44609,6917.927,95.439,541.423,538.161,0.0
50815.0,STARLINK-3234,PAYLOAD,2022-10-17 19:54:18,15.08829289,0.0002401999999999,53.2189,330.5867,30.888,329.2253,0.00013338,1.834e-05,0.0,0 STARLINK-3234,1 50815U 22001N   22290.82937975  .00001834  00000-0  13338-3 0  9996,2 50815  53.2189 330.5867 0002402  30.8880 329.2253 15.08829289 43382,6917.913000000001,95.438,541.44,538.116,0.0
50815.0,STARLINK-3234,PAYLOAD,2022-10-18 11:48:10,15.08827284,0.0002389,53.2184,327.6140000000001,34.4103,325.7044,0.00012479,1.698e-05,0.0,0 STARLINK-3234,1 50815U 22001N   22291.49178572  .00001698  00000-0  12479-3 0  9993,2 50815  53.2184 327.6140 0002389  34.4103 325.7044 15.08827284 43483,6917.919,95.438,541.437,538.132,0.0
50815.0,STARLINK-3234,PAYLOAD,2022-10-18 19:45:06,15.08833332,0.0002469,53.2184,326.1263,33.2345,326.8802,0.00024143,3.556e-05,0.0,0 STARLINK-3234,1 50815U 22001N   22291.82298653  .00003556  00000-0  24143-3 0  9999,2 50815  53.2184 326.1263 0002469  33.2345 326.8802 15.08833332 43538,6917.901,95.438,541.474,538.058,0.0
50815.0,STARLINK-3234,PAYLOAD,2022-10-19 10:03:33,15.08852665,0.0002511,53.2181,323.4501,35.0833,325.0325,0.0006473,0.00010032,0.0,0 STARLINK-3234,1 50815U 22001N   22292.41914346  .00010032  00000-0  64730-3 0  9992,2 50815  53.2181 323.4501 0002511  35.0833 325.0325 15.08852665 44891,6917.842,95.437,541.444,537.97,0.0
50815.0,STARLINK-3234,PAYLOAD,2022-10-19 11:38:57,15.08852854,0.0002566999999999,53.2181,323.153,35.9089,324.2076,0.00079171,0.00012339,0.0,0 STARLINK-3234,1 50815U 22001N   22292.48538385  .00012339  00000-0  79171-3 0  9991,2 50815  53.2181 323.1530 0002567  35.9089 324.2076 15.08852854 43638,6917.840999999999,95.437,541.482,537.93,0.0
